{
  "type": "FeatureCollection",
  "features": [
    {
      "type": "Feature",
      "properties": {
        "norad_id": 34845,
        "name": "COSMOS 2251 DEB",
        "group": "cosmos-2251-debris",
        "lat": -67.12071172536602,
        "lon": 24.96290298220348,
        "alt_km": 740.9670903553297,
        "timestamp": "2025-12-05T07:38:19.240615+00:00",
        "meta_object_name": "COSMOS 2251 DEB",
        "meta_object_id": "1993-036ABP",
        "meta_epoch": "2025-11-28T06:44:43.474272",
        "meta_mean_motion": 14.45815545,
        "meta_eccentricity": 0.00217969,
        "meta_inclination": 74.024,
        "meta_ra_of_asc_node": 175.3373,
        "meta_arg_of_pericenter": 338.6212,
        "meta_mean_anomaly": 21.4033,
        "meta_ephemeris_type": 0,
        "meta_classification_type": "U",
        "meta_norad_cat_id": 34845,
        "meta_element_set_no": 999,
        "meta_rev_at_epoch": 87257,
        "meta_bstar": 0.00025523358,
        "meta_mean_motion_dot": 8.81e-06,
        "meta_mean_motion_ddot": 0,
        "tle_line1": "1 34845U 93036ABP 25332.28105873  .00000881  00000+0  25523-3 0  9990",
        "tle_line2": "2 34845  74.0240 175.3373 0021796 338.6212  21.4033 14.45815545872576"
      },
      "geometry": {
        "type": "Point",
        "coordinates": [
          24.96290298220348,
          -67.12071172536602
        ]
      }
    },
    {
      "type": "Feature",
      "properties": {
        "norad_id": 34846,
        "name": "COSMOS 2251 DEB",
        "group": "cosmos-2251-debris",
        "lat": 21.575372181129946,
        "lon": 89.15173465585129,
        "alt_km": 752.8080812843955,
        "timestamp": "2025-12-05T07:38:19.240624+00:00",
        "meta_object_name": "COSMOS 2251 DEB",
        "meta_object_id": "1993-036ABQ",
        "meta_epoch": "2025-12-04T14:19:20.273952",
        "meta_mean_motion": 14.47129251,
        "meta_eccentricity": 0.0025914,
        "meta_inclination": 74.0312,
        "meta_ra_of_asc_node": 277.0017,
        "meta_arg_of_pericenter": 344.4573,
        "meta_mean_anomaly": 15.5787,
        "meta_ephemeris_type": 0,
        "meta_classification_type": "U",
        "meta_norad_cat_id": 34846,
        "meta_element_set_no": 999,
        "meta_rev_at_epoch": 87286,
        "meta_bstar": 0.0021212,
        "meta_mean_motion_dot": 7.75e-05,
        "meta_mean_motion_ddot": 0,
        "tle_line1": "1 34846U 93036ABQ 25338.59676243  .00007750  00000+0  21212-2 0  9997",
        "tle_line2": "2 34846  74.0312 277.0017 0025914 344.4573  15.5787 14.47129251872869"
      },
      "geometry": {
        "type": "Point",
        "coordinates": [
          89.15173465585129,
          21.575372181129946
        ]
      }
    },
    {
      "type": "Feature",
      "properties": {
        "norad_id": 34852,
        "name": "COSMOS 2251 DEB",
        "group": "cosmos-2251-debris",
        "lat": 42.51232705091705,
        "lon": 81.4041868127276,
        "alt_km": 769.0975786796516,
        "timestamp": "2025-12-05T07:38:19.240634+00:00",
        "meta_object_name": "COSMOS 2251 DEB",
        "meta_object_id": "1993-036ABW",
        "meta_epoch": "2025-12-04T12:38:00.515040",
        "meta_mean_motion": 14.36994938,
        "meta_eccentricity": 0.0015852,
        "meta_inclination": 74.0327,
        "meta_ra_of_asc_node": 278.0767,
        "meta_arg_of_pericenter": 23.4039,
        "meta_mean_anomaly": 336.7832,
        "meta_ephemeris_type": 0,
        "meta_classification_type": "U",
        "meta_norad_cat_id": 34852,
        "meta_element_set_no": 999,
        "meta_rev_at_epoch": 87416,
        "meta_bstar": 0.00023808,
        "meta_mean_motion_dot": 6.8e-06,
        "meta_mean_motion_ddot": 0,
        "tle_line1": "1 34852U 93036ABW 25338.52639485  .00000680  00000+0  23808-3 0  9993",
        "tle_line2": "2 34852  74.0327 278.0767 0015852  23.4039 336.7832 14.36994938874160"
      },
      "geometry": {
        "type": "Point",
        "coordinates": [
          81.4041868127276,
          42.51232705091705
        ]
      }
    },
    {
      "type": "Feature",
      "properties": {
        "norad_id": 34854,
        "name": "COSMOS 2251 DEB",
        "group": "cosmos-2251-debris",
        "lat": 58.843950791877276,
        "lon": -158.593564378971,
        "alt_km": 668.1024836953084,
        "timestamp": "2025-12-05T07:38:19.240644+00:00",
        "meta_object_name": "COSMOS 2251 DEB",
        "meta_object_id": "1993-036ABY",
        "meta_epoch": "2025-12-01T22:02:46.134528",
        "meta_mean_motion": 14.76470003,
        "meta_eccentricity": 0.00662316,
        "meta_inclination": 74.0289,
        "meta_ra_of_asc_node": 179.791,
        "meta_arg_of_pericenter": 293.6475,
        "meta_mean_anomaly": 65.7756,
        "meta_ephemeris_type": 0,
        "meta_classification_type": "U",
        "meta_norad_cat_id": 34854,
        "meta_element_set_no": 999,
        "meta_rev_at_epoch": 71722,
        "meta_bstar": 0.00065989077,
        "meta_mean_motion_dot": 4.729e-05,
        "meta_mean_motion_ddot": 0,
        "tle_line1": "1 34854U 93036ABY 25335.91858952  .00004729  00000+0  65989-3 0  9991",
        "tle_line2": "2 34854  74.0289 179.7910 0066231 293.6475  65.7756 14.76470003717221"
      },
      "geometry": {
        "type": "Point",
        "coordinates": [
          -158.593564378971,
          58.843950791877276
        ]
      }
    },
    {
      "type": "Feature",
      "properties": {
        "norad_id": 34856,
        "name": "COSMOS 2251 DEB",
        "group": "cosmos-2251-debris",
        "lat": 69.55745607792339,
        "lon": 150.45704503797103,
        "alt_km": 565.8016460744448,
        "timestamp": "2025-12-05T07:38:19.240654+00:00",
        "meta_object_name": "COSMOS 2251 DEB",
        "meta_object_id": "1993-036ACA",
        "meta_epoch": "2025-12-03T19:10:13.988064",
        "meta_mean_motion": 15.05251833,
        "meta_eccentricity": 0.00346135,
        "meta_inclination": 73.9972,
        "meta_ra_of_asc_node": 103.2267,
        "meta_arg_of_pericenter": 241.227,
        "meta_mean_anomaly": 245.1465,
        "meta_ephemeris_type": 0,
        "meta_classification_type": "U",
        "meta_norad_cat_id": 34856,
        "meta_element_set_no": 999,
        "meta_rev_at_epoch": 88977,
        "meta_bstar": 0.0030177118,
        "meta_mean_motion_dot": 0.00043929,
        "meta_mean_motion_ddot": 0,
        "tle_line1": "1 34856U 93036ACA 25337.79877301  .00043929  00000+0  30177-2 0  9995",
        "tle_line2": "2 34856  73.9972 103.2267 0034613 241.2270 245.1465 15.05251833889770"
      },
      "geometry": {
        "type": "Point",
        "coordinates": [
          150.45704503797103,
          69.55745607792339
        ]
      }
    },
    {
      "type": "Feature",
      "properties": {
        "norad_id": 34857,
        "name": "COSMOS 2251 DEB",
        "group": "cosmos-2251-debris",
        "lat": -71.12839294348115,
        "lon": -2.0203268932662404,
        "alt_km": 658.525468883021,
        "timestamp": "2025-12-05T07:38:19.240664+00:00",
        "meta_object_name": "COSMOS 2251 DEB",
        "meta_object_id": "1993-036ACB",
        "meta_epoch": "2025-12-03T13:53:25.818720",
        "meta_mean_motion": 14.58726098,
        "meta_eccentricity": 0.00662035,
        "meta_inclination": 74.0144,
        "meta_ra_of_asc_node": 124.2999,
        "meta_arg_of_pericenter": 250.3429,
        "meta_mean_anomaly": 238.0974,
        "meta_ephemeris_type": 0,
        "meta_classification_type": "U",
        "meta_norad_cat_id": 34857,
        "meta_element_set_no": 999,
        "meta_rev_at_epoch": 87767,
        "meta_bstar": 0.0017193547,
        "meta_mean_motion_dot": 8.251e-05,
        "meta_mean_motion_ddot": 0,
        "tle_line1": "1 34857U 93036ACB 25337.57877105  .00008251  00000+0  17194-2 0  9997",
        "tle_line2": "2 34857  74.0144 124.2999 0066203 250.3429 238.0974 14.58726098877675"
      },
      "geometry": {
        "type": "Point",
        "coordinates": [
          -2.0203268932662404,
          -71.12839294348115
        ]
      }
    },
    {
      "type": "Feature",
      "properties": {
        "norad_id": 34859,
        "name": "COSMOS 2251 DEB",
        "group": "cosmos-2251-debris",
        "lat": -4.045701411386561,
        "lon": 176.23842066513143,
        "alt_km": 533.3154701284739,
        "timestamp": "2025-12-05T07:38:19.240674+00:00",
        "meta_object_name": "COSMOS 2251 DEB",
        "meta_object_id": "1993-036ACD",
        "meta_epoch": "2025-12-03T12:38:16.176768",
        "meta_mean_motion": 15.12289472,
        "meta_eccentricity": 0.00045468,
        "meta_inclination": 74.0347,
        "meta_ra_of_asc_node": 358.7891,
        "meta_arg_of_pericenter": 317.5487,
        "meta_mean_anomaly": 195.1552,
        "meta_ephemeris_type": 0,
        "meta_classification_type": "U",
        "meta_norad_cat_id": 34859,
        "meta_element_set_no": 999,
        "meta_rev_at_epoch": 88219,
        "meta_bstar": 0.0058122279,
        "meta_mean_motion_dot": 0.0010206,
        "meta_mean_motion_ddot": 0,
        "tle_line1": "1 34859U 93036ACD 25337.52657612  .00102060  00000+0  58122-2 0  9992",
        "tle_line2": "2 34859  74.0347 358.7891 0004546 317.5487 195.1552 15.12289472882198"
      },
      "geometry": {
        "type": "Point",
        "coordinates": [
          176.23842066513143,
          -4.045701411386561
        ]
      }
    }
  ]
}